[{"OBJECT_NAME":"STARLINK-6175","OBJECT_ID":"2023-083G","EPOCH":"2026-03-09T01:22:02.858592","MEAN_MOTION":15.02529146,"ECCENTRICITY":0.00013234,"INCLINATION":43.0041,"RA_OF_ASC_NODE":85.3496,"ARG_OF_PERICENTER":265.3763,"MEAN_ANOMALY":94.6929,"EPHEMERIS_TYPE":0,"CLASSIFICATION_TYPE":"U","NORAD_CAT_ID":56882,"ELEMENT_SET_NO":999,"REV_AT_EPOCH":15157,"BSTAR":-6.0965703e-5,"MEAN_MOTION_DOT":-1.027e-5,"MEAN_MOTION_DDOT":0},{"OBJECT_NAME":"SL-8 DEB","OBJECT_ID":"1965-020EN","EPOCH":"2026-03-09T21:30:01.358784","MEAN_MOTION":14.21304929,"ECCENTRICITY":0.03828379,"INCLINATION":56.171,"RA_OF_ASC_NODE":335.2447,"ARG_OF_PERICENTER":331.0415,"MEAN_ANOMALY":26.9803,"EPHEMERIS_TYPE":0,"CLASSIFICATION_TYPE":"U","NORAD_CAT_ID":3038,"ELEMENT_SET_NO":999,"REV_AT_EPOCH":21169,"BSTAR":0.0030592028,"MEAN_MOTION_DOT":0.00014042,"MEAN_MOTION_DDOT":0}]
